ADRAS-J                 
1 58992U 24034A   24205.20525814  .00006332  00000+0  58460-3 0  9995
2 58992  98.2138 179.8726 0041873 290.9560  68.7180 14.94339266 23248
